NORAD_CAT_ID,OBJECT_NAME,OBJECT_TYPE,EPOCH,MEAN_MOTION,ECCENTRICITY,INCLINATION,RA_OF_ASC_NODE,ARG_OF_PERICENTER,MEAN_ANOMALY,BSTAR,MEAN_MOTION_DOT,MEAN_MOTION_DDOT,TLE_LINE0,TLE_LINE1,TLE_LINE2,SEMIMAJOR_AXIS,PERIOD,APOGEE,PERIGEE,DECAYED
49751.0,STARLINK-3229,PAYLOAD,2024-07-25 09:20:55,15.08823435,0.0001461,53.2168,287.9839,112.164,247.9508,-7.8828e-05,-1.542e-05,0.0,0 STARLINK-3229,1 49751U 21115AD  24207.38953680 -.00001542  00000-0 -78828-4 0  9994,2 49751  53.2168 287.9839 0001461 112.1640 247.9508 15.08823435147237,6917.931,95.439,540.807,538.785,0.0
49751.0,STARLINK-3229,PAYLOAD,2024-07-25 14:07:05,15.08824394,0.0001417,53.2155,287.0923,107.3496,252.7651,-8.8673e-05,-1.698e-05,0.0,0 STARLINK-3229,1 49751U 21115AD  24207.58825829 -.00001698  00000-0 -88673-4 0  9990,2 49751  53.2155 287.0923 0001417 107.3496 252.7651 15.08824394146152,6917.928,95.439,540.773,538.813,0.0
49751.0,STARLINK-3229,PAYLOAD,2024-07-26 04:25:33,15.08833737,0.0001358,53.2153,284.4145,104.7899,255.3244,0.00026631,3.952e-05,0.0,0 STARLINK-3229,1 49751U 21115AD  24208.18441997  .00003952  00000-0  26631-3 0  9995,2 49751  53.2153 284.4145 0001358 104.7899 255.3244 15.08833737147350,6917.9,95.438,540.704,538.825,0.0
49751.0,STARLINK-3229,PAYLOAD,2024-07-26 09:11:42,15.08846245,0.0001107,53.2136,283.5264,88.0044,272.1075,0.00042934,6.553e-05,0.0,0 STARLINK-3229,1 49751U 21115AD  24208.38313357  .00006553  00000-0  42934-3 0  9999,2 49751  53.2136 283.5264 0001107  88.0044 272.1075 15.08846245147381,6917.861,95.437,540.492,538.96,0.0
49751.0,STARLINK-3229,PAYLOAD,2024-07-26 13:57:51,15.08860564,0.0001351,53.2142,282.6334,97.9323,262.1822,0.00070608,0.00010973,0.0,0 STARLINK-3229,1 49751U 21115AD  24208.58185107  .00010973  00000-0  70608-3 0  9991,2 49751  53.2142 282.6334 0001351  97.9323 262.1822 15.08860564146306,6917.818,95.436,540.617,538.748,0.0
49751.0,STARLINK-3229,PAYLOAD,2024-07-27 09:02:28,15.0886192,0.0001355,53.2134,279.0649,101.4436,258.6709,0.00030908,4.637e-05,0.0,0 STARLINK-3229,1 49751U 21115AD  24209.37672195  .00004637  00000-0  30908-3 0  9996,2 49751  53.2134 279.0649 0001355 101.4436 258.6709 15.08861920147533,6917.813,95.436,540.616,538.741,0.0
49751.0,STARLINK-3229,PAYLOAD,2024-07-27 13:48:37,15.0887039,0.0001386,53.2144,278.1717,88.9774,271.1377,0.0004836,7.423e-05,0.0,0 STARLINK-3229,1 49751U 21115AD  24209.57543686  .00007423  00000-0  48360-3 0  9997,2 49751  53.2144 278.1717 0001386  88.9774 271.1377 15.08870390146450,6917.788,95.436,540.611,538.694,0.0
49751.0,STARLINK-3229,PAYLOAD,2024-07-28 12:04:01,15.08844414,0.0001348,53.2149,274.0089,79.4167,280.6977,5.8486e-05,6.43e-06,0.0,0 STARLINK-3229,1 49751U 21115AD  24210.50279735  .00000643  00000-0  58486-4 0  9991,2 49751  53.2149 274.0089 0001348  79.4167 280.6977 15.08844414147709,6917.867,95.437,540.664,538.799,0.0
49751.0,STARLINK-3229,PAYLOAD,2024-07-28 16:50:11,15.08845299,0.000136,53.2143,273.117,75.1353,284.979,0.0002371,3.488e-05,0.0,0 STARLINK-3229,1 49751U 21115AD  24210.70151746  .00003488  00000-0  23710-3 0  9995,2 49751  53.2143 273.1170 0001360  75.1353 284.9790 15.08845299146620,6917.864,95.437,540.67,538.788,0.0
49751.0,STARLINK-3229,PAYLOAD,2024-07-29 13:30:12,15.08844096,0.0001443,53.2141,269.2477,85.764,274.3517,0.00025803,3.821e-05,0.0,0 STARLINK-3229,1 49751U 21115AD  24211.56264040  .00003821  00000-0  25803-3 0  9998,2 49751  53.2141 269.2477 0001443  85.7640 274.3517 15.08844096146750,6917.868,95.437,540.731,538.735,0.0
49751.0,STARLINK-3229,PAYLOAD,2024-07-29 15:05:35,15.08846124,0.0001693,53.2155,268.9512,88.6719,271.4467,0.00035068,5.298e-05,0.0,0 STARLINK-3229,1 49751U 21115AD  24211.62887833  .00005298  00000-0  35068-3 0  9990,2 49751  53.2155 268.9512 0001693  88.6719 271.4467 15.08846124147877,6917.862,95.437,540.898,538.555,0.0
49751.0,STARLINK-3229,PAYLOAD,2024-07-29 21:27:08,15.08842175,0.0001701,53.2154,267.7678,60.3281,299.788,0.00027127,4.032e-05,0.0,0 STARLINK-3229,1 49751U 21115AD  24211.89384454  .00004032  00000-0  27127-3 0  9992,2 49751  53.2154 267.7678 0001701  60.3281 299.7880 15.08842175146803,6917.874,95.437,540.915,538.562,0.0
49751.0,STARLINK-3229,PAYLOAD,2024-07-30 10:10:12,15.08845473,0.0001468,53.2148,265.3845,81.3915,278.7243,0.00030861,4.628e-05,0.0,0 STARLINK-3229,1 49751U 21115AD  24212.42376156  .00004628  00000-0  30861-3 0  9992,2 49751  53.2148 265.3845 0001468  81.3915 278.7243 15.08845473146885,6917.864,95.437,540.744,538.713,0.0
49751.0,STARLINK-3229,PAYLOAD,2024-07-31 10:00:59,15.08857328,0.0001518,53.2152,260.9245,82.5926,277.5238,0.00046207,7.077e-05,0.0,0 STARLINK-3229,1 49751U 21115AD  24213.41735675  .00007077  00000-0  46207-3 0  9999,2 49751  53.2152 260.9245 0001518  82.5926 277.5238 15.08857328148140,6917.827,95.436,540.743,538.642,0.0
49751.0,STARLINK-3229,PAYLOAD,2024-08-01 13:02:33,15.08842178,0.0001509,53.2146,255.8677,82.1557,277.9607,5.721e-05,6.23e-06,0.0,0 STARLINK-3229,1 49751U 21115AD  24214.54343998  .00000623  00000-0  57210-4 0  9994,2 49751  53.2146 255.8677 0001509  82.1557 277.9607 15.08842178148311,6917.874,95.437,540.783,538.695,0.0
49751.0,STARLINK-3229,PAYLOAD,2024-08-02 08:07:11,15.08838312,0.0001471,53.2146,252.2984,83.1929,276.9231,-2.4692e-05,-6.81e-06,0.0,0 STARLINK-3229,1 49751U 21115AD  24215.33832284 -.00000681  00000-0 -24692-4 0  9997,2 49751  53.2146 252.2984 0001471  83.1929 276.9231 15.08838312148435,6917.886,95.438,540.768,538.733,0.0
49751.0,STARLINK-3229,PAYLOAD,2024-08-03 12:44:07,15.08840056,0.0001481,53.2146,246.9477,92.9963,267.1198,9.9255e-05,1.292e-05,0.0,0 STARLINK-3229,1 49751U 21115AD  24216.53064452  .00001292  00000-0  99255-4 0  9998,2 49751  53.2146 246.9477 0001481  92.9963 267.1198 15.08840056148611,6917.88,95.438,540.77,538.721,0.0
49751.0,STARLINK-3229,PAYLOAD,2024-08-03 19:05:40,15.08839966,0.000156,53.215,245.7583,81.7297,278.3872,8.6218e-05,1.084e-05,0.0,0 STARLINK-3229,1 49751U 21115AD  24216.79560554  .00001084  00000-0  86218-4 0  9994,2 49751  53.2150 245.7583 0001560  81.7297 278.3872 15.08839966147547,6917.88,95.438,540.825,538.666,0.0
49751.0,STARLINK-3229,PAYLOAD,2024-08-04 09:24:08,15.08839158,0.0001505,53.2159,243.0826,82.4429,277.6734,0.00012719,1.737e-05,0.0,0 STARLINK-3229,1 49751U 21115AD  24217.39176841  .00001737  00000-0  12719-3 0  9992,2 49751  53.2159 243.0826 0001505  82.4429 277.6734 15.08839158147633,6917.883,95.438,540.789,538.707,0.0
49751.0,STARLINK-3229,PAYLOAD,2024-08-04 18:56:27,15.08838731,0.0001467,53.2145,241.299,86.4105,273.7054,9.3333e-05,1.198e-05,0.0,0 STARLINK-3229,1 49751U 21115AD  24217.78920832  .00001198  00000-0  93333-4 0  9995,2 49751  53.2145 241.2990 0001467  86.4105 273.7054 15.08838731148800,6917.884,95.438,540.764,538.734,0.0
49751.0,STARLINK-3229,PAYLOAD,2024-08-05 06:04:09,15.08836581,0.0001532,53.2148,239.2173,86.6284,273.4883,3.5711e-05,2.8e-06,0.0,0 STARLINK-3229,1 49751U 21115AD  24218.25289124  .00000280  00000-0  35711-4 0  9997,2 49751  53.2148 239.2173 0001532  86.6284 273.4883 15.08836581147768,6917.891,95.438,540.816,538.696,0.0
49751.0,STARLINK-3229,PAYLOAD,2024-08-06 10:41:06,15.08838736,0.0001405,53.2146,233.8613,102.0356,258.0793,3.2926e-05,2.36e-06,0.0,0 STARLINK-3229,1 49751U 21115AD  24219.44521252  .00000236  00000-0  32926-4 0  9996,2 49751  53.2146 233.8613 0001405 102.0356 258.0793 15.08838736149054,6917.884,95.438,540.721,538.777,0.0
49751.0,STARLINK-3229,PAYLOAD,2024-08-06 18:38:01,15.08844804,0.0001372,53.2148,232.3758,95.3907,264.7242,3.0206e-06,-2.4e-06,0.0,0 STARLINK-3229,1 49751U 21115AD  24219.77640929 -.00000240  00000-0  30206-5 0  9991,2 49751  53.2148 232.3758 0001372  95.3907 264.7242 15.08844804147996,6917.866,95.437,540.68,538.782,0.0
49751.0,STARLINK-3229,PAYLOAD,2024-08-07 05:45:43,15.08839992,0.0001379,53.2148,230.2945,93.2865,266.8285,0.000115,1.543e-05,0.0,0 STARLINK-3229,1 49751U 21115AD  24220.24009144  .00001543  00000-0  11500-3 0  9993,2 49751  53.2148 230.2945 0001379  93.2865 266.8285 15.08839992148069,6917.88,95.438,540.699,538.791,0.0
49751.0,STARLINK-3229,PAYLOAD,2024-08-08 07:11:53,15.08848718,0.0001389,53.2151,225.5367,95.7214,264.3937,0.00015233,2.138e-05,0.0,0 STARLINK-3229,1 49751U 21115AD  24221.29992577  .00002138  00000-0  15233-3 0  9998,2 49751  53.2151 225.5367 0001389  95.7214 264.3937 15.08848718148225,6917.854,95.437,540.68,538.758,0.0
49751.0,STARLINK-3229,PAYLOAD,2024-08-09 05:27:17,15.08843359,0.0001443,53.2156,221.3747,95.3269,264.7888,4.5554e-05,4.37e-06,0.0,0 STARLINK-3229,1 49751U 21115AD  24222.22728998  .00000437  00000-0  45554-4 0  9996,2 49751  53.2156 221.3747 0001443  95.3269 264.7888 15.08843359149476,6917.87,95.437,540.733,538.737,0.0
49751.0,STARLINK-3229,PAYLOAD,2024-08-09 07:02:40,15.08845752,0.0001433,53.2156,221.0776,98.568,261.5474,5.5659e-05,5.98e-06,0.0,0 STARLINK-3229,1 49751U 21115AD  24222.29352765  .00000598  00000-0  55659-4 0  9993,2 49751  53.2156 221.0776 0001433  98.5680 261.5474 15.08845752148379,6917.863,95.437,540.719,538.736,0.0
49751.0,STARLINK-3229,PAYLOAD,2024-08-09 16:34:59,15.0883924,0.0001501,53.2155,219.2956,110.0341,250.0813,1.2227e-05,-9.3e-07,0.0,0 STARLINK-3229,1 49751U 21115AD  24222.69097214 -.00000093  00000-0  12227-4 0  9997,2 49751  53.2155 219.2956 0001501 110.0341 250.0813 15.08839240148439,6917.883,95.438,540.786,538.709,0.0
49751.0,STARLINK-3229,PAYLOAD,2024-08-10 03:42:42,15.08832483,0.000158,53.217,217.2151,108.5084,251.608,-5.3326e-05,-1.136e-05,0.0,0 STARLINK-3229,1 49751U 21115AD  24223.15465929 -.00001136  00000-0 -53326-4 0  9996,2 49751  53.2170 217.2151 0001580 108.5084 251.6080 15.08832483149610,6917.903,95.438,540.861,538.675,0.0
49751.0,STARLINK-3229,PAYLOAD,2024-08-10 06:53:28,15.08832429,0.0001631,53.2167,216.6203,110.1799,249.9368,-5.6521e-05,-1.187e-05,0.0,0 STARLINK-3229,1 49751U 21115AD  24223.28713958 -.00001187  00000-0 -56521-4 0  9994,2 49751  53.2167 216.6203 0001631 110.1799 249.9368 15.08832429148524,6917.904,95.438,540.897,538.64,0.0
